ONEWEB-0256             
1 48974U 21060H   24022.59736628  .00000066  00000+0  14007-3 0  9993
2 48974  87.9044  43.2494 0001680  95.3730 264.7592 13.16595910124286
ONEWEB-0257             
1 48975U 21060J   24023.08581841 -.00000014  00000+0 -70872-4 0  9992
2 48975  87.9046  43.1269 0001926  98.9023 261.2326 13.16593587125595
ONEWEB-0258             
1 48976U 21060K   24022.55540484 -.00000073  00000+0 -22420-3 0  9992
2 48976  87.9046  43.2619 0001853  91.0243 269.1100 13.16595138124245
ONEWEB-0259             
1 48977U 21060L   24022.54908683 -.00000018  00000+0 -80713-4 0  9990
2 48977  87.9048  43.2479 0002092  84.8395 275.2975 13.16595422124273
ONEWEB-0260             
1 48978U 21060M   24022.61874208 -.00000114  00000+0 -33136-3 0  9997
2 48978  87.9041  43.2634 0001768 110.4393 249.6928 13.16591049124266
ONEWEB-0261             
1 48979U 21060N   24022.58549358  .00000126  00000+0  29515-3 0  9996
2 48979  87.9044  43.2588 0002407  98.4153 261.7251 13.16595132124315
ONEWEB-0262             
1 48980U 21060P   24022.56650449  .00000071  00000+0  15113-3 0  9998
2 48980  87.9046  43.2309 0002296  85.2421 274.8972 13.16593341124278
ONEWEB-0263             
1 48981U 21060Q   24022.59817143  .00000041  00000+0  73760-4 0  9998
2 48981  87.9044  43.2362 0002377  93.4043 266.7359 13.16594483124241
